EXO-0                   
1 59175U 23174DK  26068.71046781  .00011582  00000+0  36716-3 0  9992
2 59175  97.3864 148.9039 0009878 157.1125 203.0559 15.32821991129797
STARLINK-33551          
1 62110U 24220Y   26068.38149222  .00043106  00000+0  15658-2 0  9993
2 62110  43.0034 207.3225 0002246 277.8737  82.1860 15.27600504 73142
